[{"OBJECT_NAME":"1998-067XK","OBJECT_ID":"1998-067XK","EPOCH":"2025-10-11T04:42:57.040128","MEAN_MOTION":15.54386723,"ECCENTRICITY":0.00015734,"INCLINATION":51.632,"RA_OF_ASC_NODE":91.6468,"ARG_OF_PERICENTER":302.4058,"MEAN_ANOMALY":57.678,"EPHEMERIS_TYPE":0,"CLASSIFICATION_TYPE":"U","NORAD_CAT_ID":65731,"ELEMENT_SET_NO":999,"REV_AT_EPOCH":338,"BSTAR":0.00089866702,"MEAN_MOTION_DOT":0.00060027,"MEAN_MOTION_DDOT":0},{"OBJECT_NAME":"RSP-03","OBJECT_ID":"1998-067XL","EPOCH":"2025-10-11T04:39:13.039488","MEAN_MOTION":15.54795619,"ECCENTRICITY":0.0001761,"INCLINATION":51.6315,"RA_OF_ASC_NODE":91.6288,"ARG_OF_PERICENTER":304.4827,"MEAN_ANOMALY":55.5998,"EPHEMERIS_TYPE":0,"CLASSIFICATION_TYPE":"U","NORAD_CAT_ID":65732,"ELEMENT_SET_NO":999,"REV_AT_EPOCH":339,"BSTAR":0.0010077637,"MEAN_MOTION_DOT":0.00068467,"MEAN_MOTION_DDOT":0},{"OBJECT_NAME":"1998-067XM","OBJECT_ID":"1998-067XM","EPOCH":"2025-10-11T04:32:44.619648","MEAN_MOTION":15.55478218,"ECCENTRICITY":0.00013296,"INCLINATION":51.632,"RA_OF_ASC_NODE":91.6004,"ARG_OF_PERICENTER":113.9505,"MEAN_ANOMALY":246.1625,"EPHEMERIS_TYPE":0,"CLASSIFICATION_TYPE":"U","NORAD_CAT_ID":65733,"ELEMENT_SET_NO":999,"REV_AT_EPOCH":339,"BSTAR":0.0012313851,"MEAN_MOTION_DOT":0.00086095,"MEAN_MOTION_DDOT":0}]
