1998-067XK              
1 65731U 98067XK  25284.19649352  .00060027  00000+0  89867-3 0  9997
2 65731  51.6320  91.6468 0001573 302.4058  57.6780 15.54386723  3384
RSP-03                  
1 65732U 98067XL  25284.19390092  .00068467  00000+0  10078-2 0  9995
2 65732  51.6315  91.6288 0001761 304.4827  55.5998 15.54795619  3391
1998-067XM              
1 65733U 98067XM  25284.18940532  .00086095  00000+0  12314-2 0  9997
2 65733  51.6320  91.6004 0001329 113.9505 246.1625 15.55478218  3399
